[
    {
        "Altitude(m)": 611967.2041659675,
        "Argument of Periapsis(deg)": 0.0,
        "Eccentricity": 0.0,
        "Inclination(deg)": 60.0,
        "Latitude(deg)": 59.14023806646158,
        "Longitude(deg)": 136.09218060851214,
        "Mean Anomaly(deg)": 98.18179999999998,
        "RAAN(deg)": 130.0,
        "Satellite Name": "Test1 578",
        "Satellite Number": 578,
        "Semi-Major Axis(m)": 6980739.136638005,
        "Time(s)": 0
    },
    {
        "Altitude(m)": 611934.4036183103,
        "Argument of Periapsis(deg)": 0.00010418945913296404,
        "Eccentricity": 0.0,
        "Inclination(deg)": 60.0,
        "Latitude(deg)": 58.986598793976746,
        "Longitude(deg)": 137.21542805758875,
        "Mean Anomaly(deg)": 98.80190614546183,
        "RAAN(deg)": 129.99957995086024,
        "Satellite Name": "Test1 578",
        "Satellite Number": 578,
        "Semi-Major Axis(m)": 6980739.136638005,
        "Time(s)": 10
    }
]